     2.100          NAVIGATION                              RINEX VERSION / TYPE
fic2rin                                 05/10/2013 00:20:56 PGM / RUN BY / DATE
                                                            END OF HEADER
32 13  5  9  4  0  0.0 -.555010978132D-03 -.204636307899D-11  .000000000000D+00
     .480000000000D+02  .768437500000D+02  .432553731885D-08  .195752446593D+01
     .407733023167D-05  .115550423507D-01  .119637697935D-04  .515371292686D+04
     .360000000000D+06  .260770320892D-07  .430581278067D-01  .163912773132D-06
     .949873905535D+00  .139281250000D+03 -.363949154366D+00 -.780746806953D-08
    -.342157109360D-09  .100000000000D+01  .173900000000D+04  .000000000000D+00
     .240000000000D+01  .000000000000D+00 -.279396772385D-08  .480000000000D+02
     .352806000000D+06  .400000000000D+01
 8 13  5  9  3 59 44.0  .604661181569D-05  .227373675443D-12  .000000000000D+00
     .900000000000D+01 -.978437500000D+02  .368872507878D-08  .920792121088D+00
    -.504776835442D-05  .128872584319D-01  .477582216263D-05  .515372685051D+04
     .359984000000D+06 -.447034835815D-07  .216213608533D+01  .245869159698D-06
     .998019194911D+00  .308031250000D+03 -.287625708070D+01 -.787568519676D-08
    -.343585740297D-09  .100000000000D+01  .173900000000D+04  .000000000000D+00
     .240000000000D+01  .000000000000D+00 -.419095158577D-08  .900000000000D+01
     .354486000000D+06  .400000000000D+01
 9 13  5  9  3 59 44.0  .239629298449D-03  .261479726760D-11  .000000000000D+00
     .100000000000D+01 -.937500000000D+02  .389123351407D-08  .203966434782D+01
    -.506825745106D-05  .173818151234D-01  .318139791489D-05  .515279291153D+04
     .359984000000D+06  .270083546638D-06  .204789665745D+01 -.119209289551D-06
     .983888408364D+00  .327062500000D+03  .165532900723D+01 -.780068207258D-08
    -.265368196508D-09  .100000000000D+01  .173900000000D+04  .000000000000D+00
     .240000000000D+01  .000000000000D+00 -.558793544769D-08  .100000000000D+01
     .359016000000D+06  .400000000000D+01
 8 13  5  9  5 59 44.0  .604754313827D-05  .227373675443D-12  .000000000000D+00
     .110000000000D+02 -.102781250000D+03  .371658338204D-08  .197098240232D+01
    -.529736280441D-05  .128867329331D-01  .455230474472D-05  .515372560120D+04
     .367184000000D+06 -.150874257088D-06  .216207973811D+01  .106170773506D-06
     .998016320277D+00  .314687500000D+03 -.287630395260D+01 -.784175521201D-08
    -.406445501515D-09  .100000000000D+01  .173900000000D+04  .000000000000D+00
     .240000000000D+01  .000000000000D+00 -.419095158577D-08  .110000000000D+02
     .360006000000D+06  .400000000000D+01
 9 13  5  9  5 59 44.0  .239648390561D-03  .261479726760D-11  .000000000000D+00
     .200000000000D+01 -.983750000000D+02  .396980821559D-08  .309040323357D+01
    -.499375164509D-05  .173826876562D-01  .299327075481D-05  .515279116631D+04
     .367184000000D+06  .217929482460D-06  .204784090857D+01  .111758708954D-07
     .983886443665D+00  .332781250000D+03  .165530571465D+01 -.775389440940D-08
    -.272868508926D-09  .100000000000D+01  .173900000000D+04  .000000000000D+00
     .240000000000D+01  .000000000000D+00 -.558793544769D-08  .200000000000D+01
     .360006000000D+06  .400000000000D+01
 1 13  5  9  6  0  0.0  .241706147790D-04  .397903932026D-11  .000000000000D+00
     .960000000000D+02 -.305000000000D+02  .494520598768D-08 -.313196465428D+01
    -.157393515110D-05  .182078022044D-02  .664219260216D-05  .515369060135D+04
     .367200000000D+06 -.204890966415D-07 -.108953781389D+01 -.335276126862D-07
     .959897141420D+00  .251125000000D+03  .267331341321D+00 -.810355183117D-08
    -.467162316328D-09  .100000000000D+01  .173900000000D+04  .000000000000D+00
     .240000000000D+01  .000000000000D+00  .838190317154D-08  .960000000000D+02
     .360006000000D+06  .400000000000D+01
 2 13  5  9  6  0  0.0  .431245658547D-03  .181898940355D-11  .000000000000D+00
     .660000000000D+02 -.440625000000D+02  .542808324431D-08 -.238192518136D+01
    -.226497650146D-05  .123467184603D-01  .615790486336D-05  .515365014458D+04
     .367200000000D+06  .126659870148D-06 -.111078300951D+01 -.290572643280D-06
     .938397485828D+00  .246656250000D+03 -.260609119516D+01 -.838427781025D-08
    -.379658671450D-09  .100000000000D+01  .173900000000D+04  .000000000000D+00
     .240000000000D+01  .000000000000D+00 -.176951289177D-07  .660000000000D+02
     .360006000000D+06  .400000000000D+01
 3 13  5  9  6  0  0.0  .204422511160D-03  .488853402203D-11  .000000000000D+00
     .430000000000D+02  .383125000000D+02  .530129224867D-08 -.220263851280D+01
     .188685953617D-05  .161786555545D-01  .679306685925D-05  .515368624496D+04
     .367200000000D+06  .244006514549D-06 -.228065366206D+01 -.186264514923D-08
     .934211828507D+00  .226843750000D+03  .128418481653D+01 -.810390898891D-08
     .735744932444D-09  .100000000000D+01  .173900000000D+04  .000000000000D+00
     .240000000000D+01  .000000000000D+00 -.465661287308D-08  .430000000000D+02
     .360006000000D+06  .400000000000D+01
 4 13  5  9  6  0  0.0  .212868209928D-03  .104591890704D-10  .000000000000D+00
     .990000000000D+02 -.382812500000D+02  .556201739464D-08  .830222261541D+00
    -.174157321453D-05  .103018495720D-01  .627338886261D-05  .515377992630D+04
     .367200000000D+06 -.875443220139D-07 -.109430474269D+01  .707805156708D-07
     .937443427710D+00  .249625000000D+03  .975615493981D+00 -.865428905731D-08
    -.560023327219D-09  .100000000000D+01  .173900000000D+04  .000000000000D+00
     .240000000000D+01  .000000000000D+00 -.605359673500D-08  .990000000000D+02
     .360006000000D+06  .400000000000D+01
 5 13  5  9  6  0  0.0 -.394086819142D-03 -.102318153949D-11  .000000000000D+00
     .101000000000D+03  .561562500000D+02  .448482966830D-08 -.195777520862D+00
     .282190740108D-05  .303141458426D-02  .111460685730D-04  .515361953735D+04
     .367200000000D+06  .335276126862D-07 -.458386713304D-01  .372529029846D-07
     .949303610329D+00  .158125000000D+03  .280621615600D+00 -.796747473445D-08
    -.311441544219D-09  .100000000000D+01  .173900000000D+04  .000000000000D+00
     .340000000000D+01  .000000000000D+00 -.102445483208D-07  .101000000000D+03
     .360006000000D+06  .400000000000D+01
 6 13  5  9  6  0  0.0  .240044668317D-03 -.162572177942D-10  .000000000000D+00
     .690000000000D+02  .320312500000D+02  .536343769442D-08 -.355645553813D+00
     .159442424774D-05  .806134508457D-02  .664591789246D-05  .515367168236D+04
     .367200000000D+06  .117346644402D-06 -.220132509179D+01 -.126659870148D-06
     .940784984225D+00  .240031250000D+03 -.330686237403D+00 -.845928093443D-08
     .584310053145D-09  .100000000000D+01  .173900000000D+04  .000000000000D+00
     .485000000000D+01  .000000000000D+00 -.512227416039D-08  .690000000000D+02
     .360006000000D+06  .400000000000D+01
 7 13  5  9  6  0  0.0  .211723614484D-03  .432009983342D-11  .000000000000D+00
     .110000000000D+02 -.971875000000D+02  .425053419467D-08  .252423002404D+01
    -.499375164509D-05  .629932433367D-02  .328011810780D-05  .515369310760D+04
     .367200000000D+06 -.670552253723D-07  .207119105898D+01  .372529029846D-08
     .975263796772D+00  .324781250000D+03 -.293588022198D+01 -.812783855710D-08
    -.288583449230D-09  .100000000000D+01  .173900000000D+04  .000000000000D+00
     .240000000000D+01  .000000000000D+00 -.107102096081D-07  .110000000000D+02
     .360006000000D+06  .400000000000D+01
10 13  5  9  6  0  0.0 -.791992060840D-04 -.125055521494D-11  .000000000000D+00
     .480000000000D+02  .515000000000D+02  .477591322167D-08  .460662545701D-01
     .289268791676D-05  .123745804885D-01  .111069530249D-04  .515363791084D+04
     .367200000000D+06  .000000000000D+00 -.263127365340D-01  .184401869774D-06
     .944137720360D+00  .154562500000D+03  .801390998889D+00 -.823498587736D-08
    -.297155234851D-09  .100000000000D+01  .173900000000D+04  .000000000000D+00
     .240000000000D+01  .000000000000D+00 -.279396772385D-08  .480000000000D+02
     .360006000000D+06  .400000000000D+01
11 13  5  9  6  0  0.0 -.380077864975D-03 -.363797880709D-11  .000000000000D+00
     .650000000000D+02 -.242812500000D+02  .667634952533D-08  .272781406637D+01
    -.142492353916D-05  .139401113847D-01  .396370887756D-05  .515367735672D+04
     .367200000000D+06  .763684511185D-07 -.138524204174D+01 -.184401869774D-06
     .888421903070D+00  .262000000000D+03  .116249372575D+01 -.885394023072D-08
    -.243938732456D-09  .100000000000D+01  .173900000000D+04  .000000000000D+00
     .240000000000D+01  .000000000000D+00 -.116415321827D-07  .650000000000D+02
     .360006000000D+06  .400000000000D+01
12 13  5  9  6  0  0.0  .132775399834D-03  .204636307899D-11  .000000000000D+00
     .850000000000D+02 -.509687500000D+02  .364443751974D-08  .221967412801D+01
    -.267475843430D-05  .452877464704D-02  .118240714073D-04  .515358191299D+04
     .367200000000D+06 -.819563865662D-07  .312968325109D+01  .428408384323D-07
     .984276598065D+00  .161000000000D+03  .240965208277D+00 -.751495588522D-08
     .274297139863D-09  .100000000000D+01  .173900000000D+04  .000000000000D+00
     .240000000000D+01  .000000000000D+00 -.121071934700D-07  .850000000000D+02
     .360006000000D+06  .400000000000D+01
13 13  5  9  6  0  0.0  .120997894555D-03 -.363797880709D-11  .000000000000D+00
     .760000000000D+02  .851875000000D+02  .423196199249D-08 -.134389038007D+01
     .440143048763D-05  .519364071079D-02  .320561230183D-05  .515375736237D+04
     .367200000000D+06 -.106170773506D-06  .110335626742D+01  .130385160446D-07
     .981690215955D+00  .330125000000D+03  .210608602051D+01 -.821605651745D-08
     .261439461432D-09  .100000000000D+01  .173900000000D+04  .000000000000D+00
     .340000000000D+01  .000000000000D+00 -.111758708954D-07  .760000000000D+02
     .360006000000D+06  .400000000000D+01
